APRIZESAT 2             
1 28366U 04025A   23017.07036380  .00000374  00000+0  13145-3 0  9996
2 28366  98.1350 239.9484 0108428  52.8410 308.2620 14.36899711972496
SAUDICOMSAT 1           
1 28369U 04025D   23017.13607839  .00001088  00000+0  27352-3 0  9997
2 28369  98.4715 345.4747 0032264 239.8123 119.9876 14.52987684982939
SAUDICOMSAT 2           
1 28370U 04025E   23017.16637917  .00000973  00000+0  26981-3 0  9991
2 28370  98.5634 345.0595 0058699  74.7837 285.9836 14.47861330979576
APRIZESAT 1             
1 28372U 04025G   23017.12661356  .00000938  00000+0  25147-3 0  9997
2 28372  98.5246 345.0146 0045855 347.1585  12.8437 14.49945060981118
NANOSAT-1               
1 28493U 04049B   23017.52340449  .00002355  00000+0  36296-3 0  9990
2 28493  98.1175 123.5795 0003974 345.8115  14.2981 14.74378786971413
SAUDICOMSAT 7           
1 31119U 07012C   23017.13148207  .00001347  00000+0  26940-3 0  9992
2 31119  98.2115 326.2900 0060274 141.2505 219.3043 14.62352855839982
SAUDICOMSAT 6           
1 31121U 07012E   23017.07196285  .00001360  00000+0  28850-3 0  9994
2 31121  98.2505 321.4691 0074707 247.9648 111.3604 14.59122039838168
SAUDICOMSAT 5           
1 31124U 07012H   23017.08217046  .00001655  00000+0  31825-3 0  9990
2 31124  98.1811 327.6299 0052431  86.6505 274.0693 14.64099546840915
SAUDICOMSAT 3           
1 31125U 07012J   23016.80489825  .00002108  00000+0  38873-3 0  9990
2 31125  98.1470 328.5977 0043529  33.0350 327.3559 14.65967572841763
SAUDICOMSAT 4           
1 31127U 07012L   23016.80593441  .00001237  00000+0  25518-3 0  9996
2 31127  98.2337 324.4051 0067071 192.3448 167.6112 14.60858696839028
APRIZESAT 4             
1 35684U 09041D   23017.31614025  .00001593  00000+0  21472-3 0  9991
2 35684  98.2999  43.1993 0047150  27.0065 333.3584 14.79937300726748
APRIZESAT 3             
1 35686U 09041F   23016.51476233  .00003230  00000+0  33897-3 0  9995
2 35686  98.0998 112.9013 0070770 209.0308 150.6965 14.88427470730347
AISSAT 1                
1 36797U 10035C   23016.77721028  .00004043  00000+0  44902-3 0  9999
2 36797  98.2330 213.6965 0010322 190.1017 169.9993 14.87772619678153
S-NET D                 
1 43186U 18014G   23016.79983404  .00006670  00000+0  55569-3 0  9993
2 43186  97.6454 283.3912 0009248 301.9931  58.0392 14.98928185270861
S-NET B                 
1 43187U 18014H   23017.00058884  .00006600  00000+0  54993-3 0  9997
2 43187  97.6451 283.5286 0009161 301.3062  58.7264 14.98927386270898
S-NET A                 
1 43188U 18014J   23016.80060877  .00006632  00000+0  55254-3 0  9996
2 43188  97.6456 283.4089 0009172 302.1337  57.8995 14.98925351270868
S-NET C                 
1 43189U 18014K   23017.20237210  .00005790  00000+0  48312-3 0  9990
2 43189  97.6450 283.7117 0008970 300.8628  59.1712 14.98923672269472
SALSAT                  
1 46495U 20068K   23016.78190922  .00007967  00000+0  55272-3 0  9996
2 46495  97.7540 323.5638 0014315 275.1847  84.7746 15.05785138126277
